NORAD_CAT_ID,OBJECT_NAME,OBJECT_TYPE,EPOCH,MEAN_MOTION,ECCENTRICITY,INCLINATION,RA_OF_ASC_NODE,ARG_OF_PERICENTER,MEAN_ANOMALY,BSTAR,MEAN_MOTION_DOT,MEAN_MOTION_DDOT,TLE_LINE0,TLE_LINE1,TLE_LINE2,SEMIMAJOR_AXIS,PERIOD,APOGEE,PERIGEE,DECAYED
53031.0,STARLINK-4137,PAYLOAD,2023-01-28 12:54:29,15.08836566,9.64e-05,53.2163,134.5157,67.5012,292.6083,8.4582e-05,1.059e-05,0.0,0 STARLINK-4137,1 53031U 22076AX  23028.53784074  .00001059  00000-0  84582-4 0  9998,2 53031  53.2163 134.5157 0000964  67.5012 292.6083 15.08836566 32070,6917.891,95.438,540.423,539.089,0.0
53031.0,STARLINK-4137,PAYLOAD,2023-01-28 16:05:15,15.08840818,0.0001223,53.2163,133.92,84.9517,275.1615,9.9075e-05,1.289e-05,0.0,0 STARLINK-4137,1 53031U 22076AX  23028.67031846  .00001289  00000-0  99075-4 0  9993,2 53031  53.2163 133.9200 0001223  84.9517 275.1615 15.08840818 31626,6917.878,95.438,540.589,538.897,0.0
53031.0,STARLINK-4137,PAYLOAD,2023-01-29 14:20:39,15.0883829,9.68e-05,53.2163,129.7578,64.554,295.5552,8.5789e-05,1.078e-05,0.0,0 STARLINK-4137,1 53031U 22076AX  23029.59768178  .00001078  00000-0  85789-4 0  9993,2 53031  53.2163 129.7578 0000968  64.5540 295.5552 15.08838290 32237,6917.886,95.438,540.42,539.081,0.0
53031.0,STARLINK-4137,PAYLOAD,2023-01-30 11:00:40,15.08837592,0.0001231,53.2155,125.8925,82.4754,277.6378,3.9297e-05,3.38e-06,0.0,0 STARLINK-4137,1 53031U 22076AX  23030.45880487  .00000338  00000-0  39297-4 0  9999,2 53031  53.2155 125.8925 0001231  82.4754 277.6378 15.08837592 31893,6917.888,95.438,540.604,538.901,0.0
53031.0,STARLINK-4137,PAYLOAD,2023-01-30 23:43:45,15.08844206,0.0001018,53.2156,123.5131,88.885,271.2259,5.8037e-05,6.36e-06,0.0,0 STARLINK-4137,1 53031U 22076AX  23030.98871916  .00000636  00000-0  58037-4 0  9998,2 53031  53.2156 123.5131 0001018  88.8850 271.2259 15.08844206 32448,6917.868,95.437,540.437,539.028,0.0
53031.0,STARLINK-4137,PAYLOAD,2023-01-31 12:26:50,15.08841266,0.0001041,53.215,121.1347,69.4532,290.6572,0.00011308,1.512e-05,0.0,0 STARLINK-4137,1 53031U 22076AX  23031.51864105  .00001512  00000-0  11308-3 0  9993,2 53031  53.2150 121.1347 0001041  69.4532 290.6572 15.08841266 32056,6917.877,95.437,540.462,539.021,0.0
53031.0,STARLINK-4137,PAYLOAD,2023-01-31 15:37:36,15.08848672,0.0001099,53.2155,120.5386,92.9718,267.14,0.00014146,1.965e-05,0.0,0 STARLINK-4137,1 53031U 22076AX  23031.65111476  .00001965  00000-0  14146-3 0  9999,2 53031  53.2155 120.5386 0001099  92.9718 267.1400 15.08848672 32076,6917.854,95.437,540.479,538.959,0.0
53031.0,STARLINK-4137,PAYLOAD,2023-02-01 05:56:05,15.08838276,0.0001344,53.2152,117.8601,100.2242,259.8901,5.951e-05,6.59e-06,0.0,0 STARLINK-4137,1 53031U 22076AX  23032.24728303  .00000659  00000-0  59510-4 0  9992,2 53031  53.2152 117.8601 0001344 100.2242 259.8901 15.08838276 32635,6917.886,95.438,540.68,538.821,0.0
53031.0,STARLINK-4137,PAYLOAD,2023-02-01 12:17:37,15.08847764,0.0001336,53.2158,116.6696,121.8062,238.3061,7.018e-05,8.29e-06,0.0,0 STARLINK-4137,1 53031U 22076AX  23032.51223489  .00000829  00000-0  70180-4 0  9992,2 53031  53.2158 116.6696 0001336 121.8062 238.3061 15.08847764 32206,6917.857,95.437,540.646,538.797,0.0
53031.0,STARLINK-4137,PAYLOAD,2023-02-02 12:08:24,15.08841603,0.0001146,53.2155,112.2092,106.4492,253.6626,-1.8789e-05,-5.87e-06,0.0,0 STARLINK-4137,1 53031U 22076AX  23033.50584222 -.00000587  00000-0 -18789-4 0  9997,2 53031  53.2155 112.2092 0001146 106.4492 253.6626 15.08841603 32359,6917.875,95.437,540.533,538.948,0.0
53031.0,STARLINK-4137,PAYLOAD,2023-02-02 21:40:43,15.08839071,0.000102,53.2153,110.4261,103.1988,256.9118,-3.8938e-05,-9.07e-06,0.0,0 STARLINK-4137,1 53031U 22076AX  23033.90328401 -.00000907  00000-0 -38938-4 0  9990,2 53031  53.2153 110.4261 0001020 103.1988 256.9118 15.08839071 32886,6917.883,95.438,540.454,539.043,0.0
53031.0,STARLINK-4137,PAYLOAD,2023-02-03 08:48:25,15.08836682,0.0001078,53.2153,108.3462,107.6636,252.4474,-1.4829e-06,-3.11e-06,0.0,0 STARLINK-4137,1 53031U 22076AX  23034.36696691 -.00000311  00000-0 -14829-5 0  9993,2 53031  53.2153 108.3462 0001078 107.6636 252.4474 15.08836682 32484,6917.891,95.438,540.501,539.01,0.0
53031.0,STARLINK-4137,PAYLOAD,2023-02-04 08:39:13,15.08835784,9.24e-05,53.2166,103.8876,100.2391,259.8705,6.7986e-05,7.94e-06,0.0,0 STARLINK-4137,1 53031U 22076AX  23035.36056827  .00000794  00000-0  67986-4 0  9999,2 53031  53.2166 103.8876 0000924 100.2391 259.8705 15.08835784 33103,6917.893,95.438,540.397,539.119,0.0
53031.0,STARLINK-4137,PAYLOAD,2023-02-04 13:25:21,15.08843971,9.57e-05,53.2149,102.9932,88.7961,271.314,0.00012184,1.652e-05,0.0,0 STARLINK-4137,1 53031U 22076AX  23035.55928202  .00001652  00000-0  12184-3 0  9998,2 53031  53.2149 102.9932 0000957  88.7961 271.3140 15.08843971 33138,6917.868,95.437,540.395,539.071,0.0
53031.0,STARLINK-4137,PAYLOAD,2023-02-04 21:22:18,15.08834042,0.000117,53.2165,101.5063,97.2563,262.8562,6.6719e-05,7.74e-06,0.0,0 STARLINK-4137,1 53031U 22076AX  23035.89049080  .00000774  00000-0  66719-4 0  9991,2 53031  53.2165 101.5063 0001170  97.2563 262.8562 15.08834042 33184,6917.899,95.438,540.573,538.954,0.0
53031.0,STARLINK-4137,PAYLOAD,2023-02-05 11:40:46,15.08840082,0.0001154,53.2166,98.8312,91.0138,269.0986,4.5916e-05,4.43e-06,0.0,0 STARLINK-4137,1 53031U 22076AX  23036.48665046  .00000443  00000-0  45916-4 0  9992,2 53031  53.2166  98.8312 0001154  91.0138 269.0986 15.08840082 32800,6917.88,95.438,540.543,538.947,0.0
53031.0,STARLINK-4137,PAYLOAD,2023-02-05 21:13:05,15.08828787,0.0001079,53.2157,97.045,82.6981,277.4134,0.00017775,2.541e-05,0.0,0 STARLINK-4137,1 53031U 22076AX  23036.88409307  .00002541  00000-0  17775-3 0  9994,2 53031  53.2157  97.0450 0001079  82.6981 277.4134 15.08828787 32864,6917.915,95.438,540.526,539.033,0.0
53031.0,STARLINK-4137,PAYLOAD,2023-02-06 03:34:38,15.08833213,0.0001094,53.2154,95.8554,81.8456,278.266,0.0001613,2.28e-05,0.0,0 STARLINK-4137,1 53031U 22076AX  23037.14905264  .00002280  00000-0  16130-3 0  9991,2 53031  53.2154  95.8554 0001094  81.8456 278.2660 15.08833213 33377,6917.901,95.438,540.523,539.009,0.0
53031.0,STARLINK-4137,PAYLOAD,2023-02-06 11:31:32,15.08852414,0.0001165,53.2164,94.3699,84.3728,275.7397,9.9604e-05,1.298e-05,0.0,0 STARLINK-4137,1 53031U 22076AX  23037.48024262  .00001298  00000-0  99604-4 0  9994,2 53031  53.2164  94.3699 0001165  84.3728 275.7397 15.08852414 33420,6917.842,95.437,540.513,538.902,0.0
53031.0,STARLINK-4137,PAYLOAD,2023-02-06 13:06:55,15.08856261,0.0001108,53.2156,94.0716,87.8264,272.2855,0.00013299,1.83e-05,0.0,0 STARLINK-4137,1 53031U 22076AX  23037.54647905  .00001830  00000-0  13299-3 0  9993,2 53031  53.2156  94.0716 0001108  87.8264 272.2855 15.08856261 32961,6917.831,95.437,540.462,538.929,0.0
53031.0,STARLINK-4137,PAYLOAD,2023-02-06 21:03:51,15.08853703,0.0001188,53.2161,92.5855,83.0815,277.0312,8.2554e-05,1.027e-05,0.0,0 STARLINK-4137,1 53031U 22076AX  23037.87768061  .00001027  00000-0  82554-4 0  9995,2 53031  53.2161  92.5855 0001188  83.0815 277.0312 15.08853703 33018,6917.839,95.437,540.525,538.882,0.0
53031.0,STARLINK-4137,PAYLOAD,2023-02-07 03:25:24,15.08843362,0.0001272,53.2157,91.3953,90.3248,269.789,0.00015729,2.216e-05,0.0,0 STARLINK-4137,1 53031U 22076AX  23038.14264627  .00002216  00000-0  15729-3 0  9995,2 53031  53.2157  91.3953 0001272  90.3248 269.7890 15.08843362 33529,6917.87,95.437,540.615,538.855,0.0
53031.0,STARLINK-4137,PAYLOAD,2023-02-07 09:46:56,15.0885422,0.0001362,53.2156,90.2074,80.4502,279.6644,0.00025855,3.831e-05,0.0,0 STARLINK-4137,1 53031U 22076AX  23038.40760113  .00003831  00000-0  25855-3 0  9990,2 53031  53.2156  90.2074 0001362  80.4502 279.6644 15.08854220 33097,6917.837,95.437,540.644,538.76,0.0
53031.0,STARLINK-4137,PAYLOAD,2023-02-07 20:54:38,15.08851455,0.0001517,53.2157,88.1282,70.6224,289.4932,0.00017807,2.548e-05,0.0,0 STARLINK-4137,1 53031U 22076AX  23038.87128121  .00002548  00000-0  17807-3 0  9990,2 53031  53.2157  88.1282 0001517  70.6224 289.4932 15.08851455 33163,6917.845,95.437,540.76,538.661,0.0
53031.0,STARLINK-4137,PAYLOAD,2023-02-08 08:02:20,15.08842013,0.0001486,53.2156,86.0438,106.5021,253.6134,-1.6611e-06,-3.14e-06,0.0,0 STARLINK-4137,1 53031U 22076AX  23039.33496377 -.00000314  00000-0 -16611-5 0  9998,2 53031  53.2156  86.0438 0001486 106.5021 253.6134 15.08842013 33708,6917.874,95.437,540.767,538.711,0.0
53031.0,STARLINK-4137,PAYLOAD,2023-02-08 12:48:29,15.08847778,0.0001469,53.2149,85.1481,124.9886,235.1245,-2.7829e-06,-3.32e-06,0.0,0 STARLINK-4137,1 53031U 22076AX  23039.53367864 -.00000332  00000-0 -27829-5 0  9991,2 53031  53.2149  85.1481 0001469 124.9886 235.1245 15.08847778 33264,6917.857,95.437,540.738,538.705,0.0
53031.0,STARLINK-4137,PAYLOAD,2023-02-09 06:17:45,15.0883471,0.000124,53.2161,81.8798,105.8274,254.2855,2.7423e-05,1.49e-06,0.0,0 STARLINK-4137,1 53031U 22076AX  23040.26232961  .00000149  00000-0  27423-4 0  9995,2 53031  53.2161  81.8798 0001240 105.8274 254.2855 15.08834710 33843,6917.897,95.438,540.619,538.904,0.0
53031.0,STARLINK-4137,PAYLOAD,2023-02-09 11:03:54,15.08841894,0.0001302,53.2157,80.9889,93.7169,266.3972,2.933e-05,1.79e-06,0.0,0 STARLINK-4137,1 53031U 22076AX  23040.46104686  .00000179  00000-0  29330-4 0  9991,2 53031  53.2157  80.9889 0001302  93.7169 266.3972 15.08841894 33403,6917.875,95.437,540.64,538.839,0.0
53031.0,STARLINK-4137,PAYLOAD,2023-02-09 19:00:50,15.08837887,0.0001195,53.2154,79.4989,81.0197,279.093,0.00011763,1.585e-05,0.0,0 STARLINK-4137,1 53031U 22076AX  23040.79224900  .00001585  00000-0  11763-3 0  9991,2 53031  53.2154  79.4989 0001195  81.0197 279.0930 15.08837887 33452,6917.887,95.438,540.579,538.925,0.0
53031.0,STARLINK-4137,PAYLOAD,2023-02-10 02:57:46,15.08828863,0.0001273,53.215,78.0126,98.4787,261.6349,0.00011051,1.471e-05,0.0,0 STARLINK-4137,1 53031U 22076AX  23041.12345595  .00001471  00000-0  11051-3 0  9997,2 53031  53.2150  78.0126 0001273  98.4787 261.6349 15.08828863 33501,6917.914,95.438,540.66,538.899,0.0
